STARLINK-5959           
1 56454U 23064G   25289.33752586  .00000390  00000+0  40509-4 0  9997
2 56454  69.9987 148.4163 0002902 270.9850  89.0977 14.98331253133629
STARLINK-5987           
1 56455U 23064H   25288.99955889 -.00002184  00000+0 -17527-3 0  9998
2 56455  69.9988 149.2425 0003127 269.9137  90.1663 14.98330527133579
STARLINK-5995           
1 56456U 23064J   25290.01347652  .00001024  00000+0  93601-4 0  9996
2 56456  69.9978 146.7624 0002907 267.3808  92.7019 14.98330861133725
STARLINK-5994           
1 56457U 23064K   25289.34169187  .00000273  00000+0  30678-4 0  9996
2 56457  70.0004 148.4306 0002321 266.3627  93.7266 14.98340056133624
STARLINK-6050           
1 56458U 23064L   25290.01762859  .00002844  00000+0  24592-3 0  9991
2 56458  70.0019 146.7769 0002827 268.8192  91.2643 14.98350031133727
STARLINK-6048           
1 56459U 23064M   25289.31682205  .00000931  00000+0  85797-4 0  9999
2 56459  69.9991 148.3429 0002925 270.9222  89.1602 14.98332126133616
STARLINK-6047           
1 56460U 23064N   25290.13031389  .00001841  00000+0  16205-3 0  9992
2 56460  69.9987 146.3673 0002816 273.4162  86.6675 14.98327729133741
STARLINK-6037           
1 56461U 23064P   25290.04684117  .00000329  00000+0  35349-4 0  9997
2 56461  69.9989 146.4750 0002931 270.0743  90.0080 14.98331316133732
STARLINK-6045           
1 56462U 23064Q   25289.93387778  .00000729  00000+0  68862-4 0  9997
2 56462  69.9978 106.7141 0003095 269.9792  90.1013 14.98334957134706
STARLINK-6051           
1 56463U 23064R   25290.02184101  .00005317  00000+0  45312-3 0  9997
2 56463  69.9986 146.7832 0002893 262.7458  97.3372 14.98322206133724
STARLINK-6043           
1 56464U 23064S   25290.12612330  .00001034  00000+0  94390-4 0  9992
2 56464  69.9987 146.3519 0002967 269.9805  90.1014 14.98333892133740
STARLINK-6054           
1 56465U 23064T   25290.07558663 -.00000143  00000+0 -41991-5 0  9997
2 56465  69.9976 106.4013 0003007 270.3624  89.7190 14.98328021134722
STARLINK-6053           
1 56466U 23064U   25289.31665610 -.00000049  00000+0  36512-5 0  9991
2 56466  69.9992 148.3418 0002934 270.2831  89.7992 14.98330862133626
STARLINK-6055           
1 56467U 23064V   25290.13842412  .00000432  00000+0  44004-4 0  9990
2 56467  69.9975 126.5251 0002728 268.1274  91.9572 14.98330560134231
STARLINK-5998           
1 56468U 23064W   25290.04266698  .00000247  00000+0  28466-4 0  9995
2 56468  70.0007 146.4595 0002965 273.4292  86.6528 14.98332557133739
STARLINK-5518           
1 56469U 23064X   25290.15094741  .00000113  00000+0  17229-4 0  9993
2 56469  69.9979 126.5695 0003031 269.0334  91.0477 14.98329618134231
STARLINK-5523           
1 56470U 23064Y   25290.14259868 -.00000342  00000+0 -20840-4 0  9996
2 56470  69.9976 126.5401 0003048 269.5498  90.5312 14.98330714134230
