[{"OBJECT_NAME":"STARLINK-5959","OBJECT_ID":"2023-064G","EPOCH":"2025-10-16T08:06:02.234304","MEAN_MOTION":14.98331253,"ECCENTRICITY":0.0002902,"INCLINATION":69.9987,"RA_OF_ASC_NODE":148.4163,"ARG_OF_PERICENTER":270.985,"MEAN_ANOMALY":89.0977,"EPHEMERIS_TYPE":0,"CLASSIFICATION_TYPE":"U","NORAD_CAT_ID":56454,"ELEMENT_SET_NO":999,"REV_AT_EPOCH":13362,"BSTAR":4.0509e-5,"MEAN_MOTION_DOT":3.9e-6,"MEAN_MOTION_DDOT":0},{"OBJECT_NAME":"STARLINK-5987","OBJECT_ID":"2023-064H","EPOCH":"2025-10-15T23:59:21.888096","MEAN_MOTION":14.98330527,"ECCENTRICITY":0.00031276,"INCLINATION":69.9988,"RA_OF_ASC_NODE":149.2425,"ARG_OF_PERICENTER":269.9137,"MEAN_ANOMALY":90.1663,"EPHEMERIS_TYPE":0,"CLASSIFICATION_TYPE":"U","NORAD_CAT_ID":56455,"ELEMENT_SET_NO":999,"REV_AT_EPOCH":13357,"BSTAR":-0.00017527066,"MEAN_MOTION_DOT":-2.184e-5,"MEAN_MOTION_DDOT":0},{"OBJECT_NAME":"STARLINK-5995","OBJECT_ID":"2023-064J","EPOCH":"2025-10-17T00:19:24.371328","MEAN_MOTION":14.98330861,"ECCENTRICITY":0.0002907,"INCLINATION":69.9978,"RA_OF_ASC_NODE":146.7624,"ARG_OF_PERICENTER":267.3808,"MEAN_ANOMALY":92.7019,"EPHEMERIS_TYPE":0,"CLASSIFICATION_TYPE":"U","NORAD_CAT_ID":56456,"ELEMENT_SET_NO":999,"REV_AT_EPOCH":13372,"BSTAR":9.3601e-5,"MEAN_MOTION_DOT":1.024e-5,"MEAN_MOTION_DDOT":0},{"OBJECT_NAME":"STARLINK-5994","OBJECT_ID":"2023-064K","EPOCH":"2025-10-16T08:12:02.177568","MEAN_MOTION":14.98340056,"ECCENTRICITY":0.0002321,"INCLINATION":70.0004,"RA_OF_ASC_NODE":148.4306,"ARG_OF_PERICENTER":266.3627,"MEAN_ANOMALY":93.7266,"EPHEMERIS_TYPE":0,"CLASSIFICATION_TYPE":"U","NORAD_CAT_ID":56457,"ELEMENT_SET_NO":999,"REV_AT_EPOCH":13362,"BSTAR":3.0678e-5,"MEAN_MOTION_DOT":2.73e-6,"MEAN_MOTION_DDOT":0},{"OBJECT_NAME":"STARLINK-6050","OBJECT_ID":"2023-064L","EPOCH":"2025-10-17T00:25:23.110176","MEAN_MOTION":14.98350031,"ECCENTRICITY":0.0002827,"INCLINATION":70.0019,"RA_OF_ASC_NODE":146.7769,"ARG_OF_PERICENTER":268.8192,"MEAN_ANOMALY":91.2643,"EPHEMERIS_TYPE":0,"CLASSIFICATION_TYPE":"U","NORAD_CAT_ID":56458,"ELEMENT_SET_NO":999,"REV_AT_EPOCH":13372,"BSTAR":0.00024592,"MEAN_MOTION_DOT":2.844e-5,"MEAN_MOTION_DDOT":0},{"OBJECT_NAME":"STARLINK-6048","OBJECT_ID":"2023-064M","EPOCH":"2025-10-16T07:36:13.425120","MEAN_MOTION":14.98332126,"ECCENTRICITY":0.0002925,"INCLINATION":69.9991,"RA_OF_ASC_NODE":148.3429,"ARG_OF_PERICENTER":270.9222,"MEAN_ANOMALY":89.1602,"EPHEMERIS_TYPE":0,"CLASSIFICATION_TYPE":"U","NORAD_CAT_ID":56459,"ELEMENT_SET_NO":999,"REV_AT_EPOCH":13361,"BSTAR":8.5797e-5,"MEAN_MOTION_DOT":9.31e-6,"MEAN_MOTION_DDOT":0},{"OBJECT_NAME":"STARLINK-6047","OBJECT_ID":"2023-064N","EPOCH":"2025-10-17T03:07:39.120096","MEAN_MOTION":14.98327729,"ECCENTRICITY":0.0002816,"INCLINATION":69.9987,"RA_OF_ASC_NODE":146.3673,"ARG_OF_PERICENTER":273.4162,"MEAN_ANOMALY":86.6675,"EPHEMERIS_TYPE":0,"CLASSIFICATION_TYPE":"U","NORAD_CAT_ID":56460,"ELEMENT_SET_NO":999,"REV_AT_EPOCH":13374,"BSTAR":0.00016205,"MEAN_MOTION_DOT":1.841e-5,"MEAN_MOTION_DDOT":0},{"OBJECT_NAME":"STARLINK-6037","OBJECT_ID":"2023-064P","EPOCH":"2025-10-17T01:07:27.077088","MEAN_MOTION":14.98331316,"ECCENTRICITY":0.0002931,"INCLINATION":69.9989,"RA_OF_ASC_NODE":146.475,"ARG_OF_PERICENTER":270.0743,"MEAN_ANOMALY":90.008,"EPHEMERIS_TYPE":0,"CLASSIFICATION_TYPE":"U","NORAD_CAT_ID":56461,"ELEMENT_SET_NO":999,"REV_AT_EPOCH":13373,"BSTAR":3.5349e-5,"MEAN_MOTION_DOT":3.29e-6,"MEAN_MOTION_DDOT":0},{"OBJECT_NAME":"STARLINK-6045","OBJECT_ID":"2023-064Q","EPOCH":"2025-10-16T22:24:47.040192","MEAN_MOTION":14.98334957,"ECCENTRICITY":0.0003095,"INCLINATION":69.9978,"RA_OF_ASC_NODE":106.7141,"ARG_OF_PERICENTER":269.9792,"MEAN_ANOMALY":90.1013,"EPHEMERIS_TYPE":0,"CLASSIFICATION_TYPE":"U","NORAD_CAT_ID":56462,"ELEMENT_SET_NO":999,"REV_AT_EPOCH":13470,"BSTAR":6.8862e-5,"MEAN_MOTION_DOT":7.29e-6,"MEAN_MOTION_DDOT":0},{"OBJECT_NAME":"STARLINK-6051","OBJECT_ID":"2023-064R","EPOCH":"2025-10-17T00:31:27.063264","MEAN_MOTION":14.98322206,"ECCENTRICITY":0.0002893,"INCLINATION":69.9986,"RA_OF_ASC_NODE":146.7832,"ARG_OF_PERICENTER":262.7458,"MEAN_ANOMALY":97.3372,"EPHEMERIS_TYPE":0,"CLASSIFICATION_TYPE":"U","NORAD_CAT_ID":56463,"ELEMENT_SET_NO":999,"REV_AT_EPOCH":13372,"BSTAR":0.00045312,"MEAN_MOTION_DOT":5.317e-5,"MEAN_MOTION_DDOT":0},{"OBJECT_NAME":"STARLINK-6043","OBJECT_ID":"2023-064S","EPOCH":"2025-10-17T03:01:37.053120","MEAN_MOTION":14.98333892,"ECCENTRICITY":0.0002967,"INCLINATION":69.9987,"RA_OF_ASC_NODE":146.3519,"ARG_OF_PERICENTER":269.9805,"MEAN_ANOMALY":90.1014,"EPHEMERIS_TYPE":0,"CLASSIFICATION_TYPE":"U","NORAD_CAT_ID":56464,"ELEMENT_SET_NO":999,"REV_AT_EPOCH":13374,"BSTAR":9.439e-5,"MEAN_MOTION_DOT":1.034e-5,"MEAN_MOTION_DDOT":0},{"OBJECT_NAME":"STARLINK-6054","OBJECT_ID":"2023-064T","EPOCH":"2025-10-17T01:48:50.684832","MEAN_MOTION":14.98328021,"ECCENTRICITY":0.0003007,"INCLINATION":69.9976,"RA_OF_ASC_NODE":106.4013,"ARG_OF_PERICENTER":270.3624,"MEAN_ANOMALY":89.719,"EPHEMERIS_TYPE":0,"CLASSIFICATION_TYPE":"U","NORAD_CAT_ID":56465,"ELEMENT_SET_NO":999,"REV_AT_EPOCH":13472,"BSTAR":-4.1991e-6,"MEAN_MOTION_DOT":-1.43e-6,"MEAN_MOTION_DDOT":0},{"OBJECT_NAME":"STARLINK-6053","OBJECT_ID":"2023-064U","EPOCH":"2025-10-16T07:35:59.087040","MEAN_MOTION":14.98330862,"ECCENTRICITY":0.0002934,"INCLINATION":69.9992,"RA_OF_ASC_NODE":148.3418,"ARG_OF_PERICENTER":270.2831,"MEAN_ANOMALY":89.7992,"EPHEMERIS_TYPE":0,"CLASSIFICATION_TYPE":"U","NORAD_CAT_ID":56466,"ELEMENT_SET_NO":999,"REV_AT_EPOCH":13362,"BSTAR":3.6512e-6,"MEAN_MOTION_DOT":-4.9e-7,"MEAN_MOTION_DDOT":0},{"OBJECT_NAME":"STARLINK-6055","OBJECT_ID":"2023-064V","EPOCH":"2025-10-17T03:19:19.843968","MEAN_MOTION":14.9833056,"ECCENTRICITY":0.0002728,"INCLINATION":69.9975,"RA_OF_ASC_NODE":126.5251,"ARG_OF_PERICENTER":268.1274,"MEAN_ANOMALY":91.9572,"EPHEMERIS_TYPE":0,"CLASSIFICATION_TYPE":"U","NORAD_CAT_ID":56467,"ELEMENT_SET_NO":999,"REV_AT_EPOCH":13423,"BSTAR":4.4004e-5,"MEAN_MOTION_DOT":4.32e-6,"MEAN_MOTION_DDOT":0},{"OBJECT_NAME":"STARLINK-5998","OBJECT_ID":"2023-064W","EPOCH":"2025-10-17T01:01:26.427072","MEAN_MOTION":14.98332557,"ECCENTRICITY":0.0002965,"INCLINATION":70.0007,"RA_OF_ASC_NODE":146.4595,"ARG_OF_PERICENTER":273.4292,"MEAN_ANOMALY":86.6528,"EPHEMERIS_TYPE":0,"CLASSIFICATION_TYPE":"U","NORAD_CAT_ID":56468,"ELEMENT_SET_NO":999,"REV_AT_EPOCH":13373,"BSTAR":2.8466e-5,"MEAN_MOTION_DOT":2.47e-6,"MEAN_MOTION_DDOT":0},{"OBJECT_NAME":"STARLINK-5518","OBJECT_ID":"2023-064X","EPOCH":"2025-10-17T03:37:21.856224","MEAN_MOTION":14.98329618,"ECCENTRICITY":0.0003031,"INCLINATION":69.9979,"RA_OF_ASC_NODE":126.5695,"ARG_OF_PERICENTER":269.0334,"MEAN_ANOMALY":91.0477,"EPHEMERIS_TYPE":0,"CLASSIFICATION_TYPE":"U","NORAD_CAT_ID":56469,"ELEMENT_SET_NO":999,"REV_AT_EPOCH":13423,"BSTAR":1.7229e-5,"MEAN_MOTION_DOT":1.13e-6,"MEAN_MOTION_DDOT":0},{"OBJECT_NAME":"STARLINK-5523","OBJECT_ID":"2023-064Y","EPOCH":"2025-10-17T03:25:20.525952","MEAN_MOTION":14.98330714,"ECCENTRICITY":0.0003048,"INCLINATION":69.9976,"RA_OF_ASC_NODE":126.5401,"ARG_OF_PERICENTER":269.5498,"MEAN_ANOMALY":90.5312,"EPHEMERIS_TYPE":0,"CLASSIFICATION_TYPE":"U","NORAD_CAT_ID":56470,"ELEMENT_SET_NO":999,"REV_AT_EPOCH":13423,"BSTAR":-2.084e-5,"MEAN_MOTION_DOT":-3.42e-6,"MEAN_MOTION_DDOT":0}]
